******************************************************************************* Revised: Jan 23, 2020            Tethys  / (Saturn)                        603                          http://ssd.jpl.nasa.gov/?sat_phys_par                            http://ssd.jpl.nasa.gov/?sat_elem SATELLITE PHYSICAL PROPERTIES:  Mean Radius (km)       = 536.3  +- 1.5     Density (g/cm^3)  =  0.956+- 0.008  Mass (10^19 kg)        =  61.76 +- 0.11    Geometric Albedo  =  0.80  GM (km^3/s^2)          =  41.21 +- 0.007   V(1,0)            = +0.7 SATELLITE ORBITAL DATA (mean values with respect to local Laplace plane):  Semi-major axis, a (km)=  294.670(10^3)    Orbital period    =  1.888 d  Eccentricity, e        =     0.0001        Rotational period = Synchronous  Inclination, i  (deg)  =     1.091*******************************************************************************  *******************************************************************************Ephemeris / WWW_USER Fri Jan 29 14:23:18 2021 Pasadena, USA      / Horizons*******************************************************************************Target body name: Tethys (603)                    {source: sat427l_merged_DE438}Center body name: Solar System Barycenter (0)     {source: DE431mx}Center-site name: BODY CENTER*******************************************************************************Start time      : A.D. 2021-Jan-01 00:00:00.0000 TDBStop  time      : A.D. 2021-Jan-02 00:00:00.0000 TDBStep-size       : 1440 minutes*******************************************************************************Center geodetic : 0.00000000,0.00000000,0.0000000 {E-lon(deg),Lat(deg),Alt(km)}Center cylindric: 0.00000000,0.00000000,0.0000000 {E-lon(deg),Dxy(km),Dz(km)}Center radii    : (undefined)                                                  Output units    : KM-SOutput type     : GEOMETRIC cartesian statesOutput format   : 2 (position and velocity)Reference frame : Ecliptic of J2000.0*******************************************************************************            JDTDB,            Calendar Date (TDB),                      X,                      Y,                      Z,                     VX,                     VY,                     VZ,**************************************************************************************************************************************************************************************************$$SOE2459215.500000000, A.D. 2021-Jan-01 00:00:00.0000,  8.206073576968952E+08, -1.246945202030201E+09, -1.105798331452435E+07,  1.980313051605227E+00,  1.428723208354279E+01, -4.513240701072506E+00,2459216.500000000, A.D. 2021-Jan-02 00:00:00.0000,  8.207769003612512E+08, -1.246770690202283E+09, -1.090984818026197E+07,  1.481772094998790E+01, -2.693601962963046E+00,  3.073064827626288E+00,$$EOE**************************************************************************************************************************************************************************************************Coordinate system description:  Ecliptic at the standard reference epoch    Reference epoch: J2000.0    X-Y plane: adopted Earth orbital plane at the reference epoch               Note: obliquity of 84381.448 arcseconds (IAU76) wrt ICRF equator    X-axis   : ICRF    Z-axis   : perpendicular to the X-Y plane in the directional (+ or -) sense               of Earth's north pole at the reference epoch.  Symbol meaning:    JDTDB    Julian Day Number, Barycentric Dynamical Time      X      X-component of position vector (km)      Y      Y-component of position vector (km)      Z      Z-component of position vector (km)      VX     X-component of velocity vector (km/sec)                                 VY     Y-component of velocity vector (km/sec)                                 VZ     Z-component of velocity vector (km/sec)                           Geometric states/elements have no aberrations applied. Computations by ...     Solar System Dynamics Group, Horizons On-Line Ephemeris System     4800 Oak Grove Drive, Jet Propulsion Laboratory     Pasadena, CA  91109   USA     Information  : https://ssd.jpl.nasa.gov/     Documentation: https://ssd.jpl.nasa.gov/?horizons_doc     Connect      : https://ssd.jpl.nasa.gov/?horizons (browser)                    telnet ssd.jpl.nasa.gov 6775       (command-line)                    e-mail command interface available                    Script and CGI interfaces available     Author       : Jon.D.Giorgini@jpl.nasa.gov*******************************************************************************